{"type": "FeatureCollection", "features": [{"type": "Feature", "properties": {"norad_id": 22490, "name": "SCD 1", "group": "resource", "lat": -5.658342347055625, "lon": -149.46073190823543, "alt_km": 729.1838620849194, "timestamp": "2025-12-21T18:54:58.149681+00:00", "meta": {"OBJECT_NAME": "SCD 1", "OBJECT_ID": "1993-009B", "EPOCH": "2025-12-20T20:00:20.608704", "MEAN_MOTION": 14.46004096, "ECCENTRICITY": 0.0042122, "INCLINATION": 24.9682, "RA_OF_ASC_NODE": 228.7229, "ARG_OF_PERICENTER": 50.6528, "MEAN_ANOMALY": 356.9599, "EPHEMERIS_TYPE": 0, "CLASSIFICATION_TYPE": "U", "NORAD_CAT_ID": 22490, "ELEMENT_SET_NO": 999, "REV_AT_EPOCH": 73527, "BSTAR": 6.2642e-05, "MEAN_MOTION_DOT": 4.14e-06, "MEAN_MOTION_DDOT": 0}, "tle": {"line1": "1 22490U 93009B   25354.83357186  .00000414  00000+0  62642-4 0  9990", "line2": "2 22490  24.9682 228.7229 0042122  50.6528 356.9599 14.46004096735273"}}, "geometry": {"type": "Point", "coordinates": [-149.46073190823543, -5.658342347055625]}}, {"type": "Feature", "properties": {"norad_id": 25397, "name": "TECHSAT 1B (GO-32)", "group": "resource", "lat": 75.57660108537671, "lon": -162.78612053611278, "alt_km": 802.7131721933292, "timestamp": "2025-12-21T18:54:58.149708+00:00", "meta": {"OBJECT_NAME": "TECHSAT 1B (GO-32)", "OBJECT_ID": "1998-043D", "EPOCH": "2025-12-21T11:41:56.072256", "MEAN_MOTION": 14.24379327, "ECCENTRICITY": 0.00017805, "INCLINATION": 98.9929, "RA_OF_ASC_NODE": 338.9018, "ARG_OF_PERICENTER": 43.3962, "MEAN_ANOMALY": 316.7356, "EPHEMERIS_TYPE": 0, "CLASSIFICATION_TYPE": "U", "NORAD_CAT_ID": 25397, "ELEMENT_SET_NO": 999, "REV_AT_EPOCH": 42603, "BSTAR": 4.1311288e-05, "MEAN_MOTION_DOT": 4.9e-07, "MEAN_MOTION_DDOT": 0}, "tle": {"line1": "1 25397U 98043D   25355.48745454  .00000049  00000+0  41311-4 0  9997", "line2": "2 25397  98.9929 338.9018 0001780  43.3962 316.7356 14.24379327426037"}}, "geometry": {"type": "Point", "coordinates": [-162.78612053611278, 75.57660108537671]}}, {"type": "Feature", "properties": {"norad_id": 25504, "name": "SCD 2", "group": "resource", "lat": -0.01967861577993143, "lon": 86.06020986428545, "alt_km": 730.7118966169646, "timestamp": "2025-12-21T18:54:58.149724+00:00", "meta": {"OBJECT_NAME": "SCD 2", "OBJECT_ID": "1998-060A", "EPOCH": "2025-12-21T14:03:05.507424", "MEAN_MOTION": 14.45427795, "ECCENTRICITY": 0.0017009, "INCLINATION": 24.9948, "RA_OF_ASC_NODE": 87.3516, "ARG_OF_PERICENTER": 47.008, "MEAN_ANOMALY": 336.2832, "EPHEMERIS_TYPE": 0, "CLASSIFICATION_TYPE": "U", "NORAD_CAT_ID": 25504, "ELEMENT_SET_NO": 999, "REV_AT_EPOCH": 43460, "BSTAR": 5.5779818e-05, "MEAN_MOTION_DOT": 3.81e-06, "MEAN_MOTION_DDOT": 0}, "tle": {"line1": "1 25504U 98060A   25355.58548041  .00000381  00000+0  55780-4 0  9994", "line2": "2 25504  24.9948  87.3516 0017009  47.0080 336.2832 14.45427795434602"}}, "geometry": {"type": "Point", "coordinates": [86.06020986428545, -0.01967861577993143]}}, {"type": "Feature", "properties": {"norad_id": 25757, "name": "DLR-TUBSAT", "group": "resource", "lat": 29.990713120637515, "lon": 165.62537281540543, "alt_km": 706.6831730686326, "timestamp": "2025-12-21T18:54:58.149737+00:00", "meta": {"OBJECT_NAME": "DLR-TUBSAT", "OBJECT_ID": "1999-029B", "EPOCH": "2025-12-17T13:22:10.787520", "MEAN_MOTION": 14.52359578, "ECCENTRICITY": 0.00141996, "INCLINATION": 98.6566, "RA_OF_ASC_NODE": 336.2196, "ARG_OF_PERICENTER": 177.8976, "MEAN_ANOMALY": 182.2281, "EPHEMERIS_TYPE": 0, "CLASSIFICATION_TYPE": "U", "NORAD_CAT_ID": 25757, "ELEMENT_SET_NO": 999, "REV_AT_EPOCH": 40688, "BSTAR": 3.7650132e-05, "MEAN_MOTION_DOT": 1.05e-06, "MEAN_MOTION_DDOT": 0}, "tle": {"line1": "1 25757U 99029B   25351.55706930  .00000105  00000+0  37650-4 0  9996", "line2": "2 25757  98.6566 336.2196 0014199 177.8976 182.2281 14.52359578406886"}}, "geometry": {"type": "Point", "coordinates": [165.62537281540543, 29.990713120637515]}}, {"type": "Feature", "properties": {"norad_id": 25994, "name": "TERRA", "group": "resource", "lat": 48.9539546315767, "lon": -123.59633895661459, "alt_km": 684.3589304365369, "timestamp": "2025-12-21T18:54:58.149748+00:00", "meta": {"OBJECT_NAME": "TERRA", "OBJECT_ID": "1999-068A", "EPOCH": "2025-12-21T14:09:33.535872", "MEAN_MOTION": 14.60911086, "ECCENTRICITY": 0.0003512, "INCLINATION": 97.9735, "RA_OF_ASC_NODE": 46.9492, "ARG_OF_PERICENTER": 76.8406, "MEAN_ANOMALY": 91.6789, "EPHEMERIS_TYPE": 0, "CLASSIFICATION_TYPE": "U", "NORAD_CAT_ID": 25994, "ELEMENT_SET_NO": 999, "REV_AT_EPOCH": 38367, "BSTAR": 8.7571338e-05, "MEAN_MOTION_DOT": 3.84e-06, "MEAN_MOTION_DDOT": 0}, "tle": {"line1": "1 25994U 99068A   25355.58997148  .00000384  00000+0  87571-4 0  9998", "line2": "2 25994  97.9735  46.9492 0003512  76.8406  91.6789 14.60911086383670"}}, "geometry": {"type": "Point", "coordinates": [-123.59633895661459, 48.9539546315767]}}, {"type": "Feature", "properties": {"norad_id": 27004, "name": "MAROC-TUBSAT", "group": "resource", "lat": 50.23854964140913, "lon": 152.4129629891355, "alt_km": 1008.0721647087876, "timestamp": "2025-12-21T18:54:58.149760+00:00", "meta": {"OBJECT_NAME": "MAROC-TUBSAT", "OBJECT_ID": "2001-056D", "EPOCH": "2025-12-21T10:02:43.183968", "MEAN_MOTION": 13.70253322, "ECCENTRICITY": 0.00191951, "INCLINATION": 99.7916, "RA_OF_ASC_NODE": 164.0156, "ARG_OF_PERICENTER": 237.1012, "MEAN_ANOMALY": 151.8705, "EPHEMERIS_TYPE": 0, "CLASSIFICATION_TYPE": "U", "NORAD_CAT_ID": 27004, "ELEMENT_SET_NO": 999, "REV_AT_EPOCH": 20184, "BSTAR": 1.912015e-05, "MEAN_MOTION_DOT": -3e-07, "MEAN_MOTION_DDOT": 0}, "tle": {"line1": "1 27004U 01056D   25355.41855537 -.00000030  00000+0  19120-4 0  9993", "line2": "2 27004  99.7916 164.0156 0019195 237.1012 151.8705 13.70253322201840"}}, "geometry": {"type": "Point", "coordinates": [152.4129629891355, 50.23854964140913]}}, {"type": "Feature", "properties": {"norad_id": 27424, "name": "AQUA", "group": "resource", "lat": 34.81262053316028, "lon": -49.08613699869781, "alt_km": 684.6971226812284, "timestamp": "2025-12-21T18:54:58.149772+00:00", "meta": {"OBJECT_NAME": "AQUA", "OBJECT_ID": "2002-022A", "EPOCH": "2025-12-20T21:44:41.124192", "MEAN_MOTION": 14.61819722, "ECCENTRICITY": 0.0001418, "INCLINATION": 98.4047, "RA_OF_ASC_NODE": 315.9181, "ARG_OF_PERICENTER": 110.6839, "MEAN_ANOMALY": 325.0971, "EPHEMERIS_TYPE": 0, "CLASSIFICATION_TYPE": "U", "NORAD_CAT_ID": 27424, "ELEMENT_SET_NO": 999, "REV_AT_EPOCH": 25722, "BSTAR": 0.00013306, "MEAN_MOTION_DOT": 6.15e-06, "MEAN_MOTION_DDOT": 0}, "tle": {"line1": "1 27424U 02022A   25354.90603153  .00000615  00000+0  13306-3 0  9998", "line2": "2 27424  98.4047 315.9181 0001418 110.6839 325.0971 14.61819722257229"}}, "geometry": {"type": "Point", "coordinates": [-49.08613699869781, 34.81262053316028]}}, {"type": "Feature", "properties": {"norad_id": 28051, "name": "IRS-P6 (RESOURCESAT-1)", "group": "resource", "lat": 37.332053565095876, "lon": -137.89720017051462, "alt_km": 723.412490383811, "timestamp": "2025-12-21T18:54:58.149783+00:00", "meta": {"OBJECT_NAME": "IRS-P6 (RESOURCESAT-1)", "OBJECT_ID": "2003-046A", "EPOCH": "2025-12-21T15:26:40.965216", "MEAN_MOTION": 14.36078574, "ECCENTRICITY": 0.00647033, "INCLINATION": 98.2166, "RA_OF_ASC_NODE": 35.638, "ARG_OF_PERICENTER": 154.036, "MEAN_ANOMALY": 320.88, "EPHEMERIS_TYPE": 0, "CLASSIFICATION_TYPE": "U", "NORAD_CAT_ID": 28051, "ELEMENT_SET_NO": 999, "REV_AT_EPOCH": 15504, "BSTAR": 6.783724e-05, "MEAN_MOTION_DOT": 1.61e-06, "MEAN_MOTION_DDOT": 0}, "tle": {"line1": "1 28051U 03046A   25355.64352969  .00000161  00000+0  67837-4 0  9995", "line2": "2 28051  98.2166  35.6380 0064703 154.0360 320.8800 14.36078574155045"}}, "geometry": {"type": "Point", "coordinates": [-137.89720017051462, 37.332053565095876]}}, {"type": "Feature", "properties": {"norad_id": 28220, "name": "SHIYAN-1 (SY-1)", "group": "resource", "lat": 45.23384601016772, "lon": -114.09847247454425, "alt_km": 480.11208445862667, "timestamp": "2025-12-21T18:54:58.149794+00:00", "meta": {"OBJECT_NAME": "SHIYAN-1 (SY-1)", "OBJECT_ID": "2004-012A", "EPOCH": "2025-12-21T04:11:20.401152", "MEAN_MOTION": 15.28343782, "ECCENTRICITY": 0.00052177, "INCLINATION": 97.8926, "RA_OF_ASC_NODE": 57.2116, "ARG_OF_PERICENTER": 290.4683, "MEAN_ANOMALY": 69.5995, "EPHEMERIS_TYPE": 0, "CLASSIFICATION_TYPE": "U", "NORAD_CAT_ID": 28220, "ELEMENT_SET_NO": 999, "REV_AT_EPOCH": 18385, "BSTAR": 0.00033294584, "MEAN_MOTION_DOT": 9.113e-05, "MEAN_MOTION_DDOT": 0}, "tle": {"line1": "1 28220U 04012A   25355.17454168  .00009113  00000+0  33295-3 0  9995", "line2": "2 28220  97.8926  57.2116 0005217 290.4683  69.5995 15.28343782183857"}}, "geometry": {"type": "Point", "coordinates": [-114.09847247454425, 45.23384601016772]}}, {"type": "Feature", "properties": {"norad_id": 28376, "name": "AURA", "group": "resource", "lat": 40.81781037001868, "lon": 133.31832511179857, "alt_km": 686.1516260407616, "timestamp": "2025-12-21T18:54:58.149805+00:00", "meta": {"OBJECT_NAME": "AURA", "OBJECT_ID": "2004-026A", "EPOCH": "2025-12-21T13:21:10.683360", "MEAN_MOTION": 14.60965189, "ECCENTRICITY": 0.00013851, "INCLINATION": 98.3197, "RA_OF_ASC_NODE": 305.8244, "ARG_OF_PERICENTER": 92.4714, "MEAN_ANOMALY": 267.6645, "EPHEMERIS_TYPE": 0, "CLASSIFICATION_TYPE": "U", "NORAD_CAT_ID": 28376, "ELEMENT_SET_NO": 999, "REV_AT_EPOCH": 14027, "BSTAR": 0.00017333817, "MEAN_MOTION_DOT": 8.02e-06, "MEAN_MOTION_DDOT": 0}, "tle": {"line1": "1 28376U 04026A   25355.55637365  .00000802  00000+0  17334-3 0  9998", "line2": "2 28376  98.3197 305.8244 0001385  92.4714 267.6645 14.60965189140274"}}, "geometry": {"type": "Point", "coordinates": [133.31832511179857, 40.81781037001868]}}]}